BEIDOU-3 M1-C19
1 43001U 17069A   23124.44685057  .00000045  00000+0  00000+0 0  9999
2 43001  55.7591 100.9333 0012568 296.0188 242.0880  1.86231685 37371
